OBJECT_NAME,OBJECT_ID,EPOCH,MEAN_MOTION,ECCENTRICITY,INCLINATION,RA_OF_ASC_NODE,ARG_OF_PERICENTER,MEAN_ANOMALY,EPHEMERIS_TYPE,CLASSIFICATION_TYPE,NORAD_CAT_ID,ELEMENT_SET_NO,REV_AT_EPOCH,BSTAR,MEAN_MOTION_DOT,MEAN_MOTION_DDOT
STARLINK-37695,2026-154F,2026-07-13T04:00:01.998720,15.92659210,.0000787,53.1598,303.1984,67.2557,223.5951,0,U,69824,999,234,-.13296E-2,-.471171E-2,.81713E-4
STARLINK-37690,2026-154G,2026-07-13T04:00:01.998720,15.92153045,.0000614,53.1598,303.1934,75.4952,217.7533,0,U,69825,999,234,-.51035E-2,-.173817E-1,.83994E-3
STARLINK-37710,2026-154H,2026-07-13T04:00:01.998720,15.92284031,.0000643,53.1598,303.1869,80.6694,215.6773,0,U,69826,999,234,-.51411E-2,-.1762603E-1,.86296E-3
STARLINK-38031,2026-154J,2026-07-13T04:00:01.998720,15.92411946,.000063,53.1599,303.1807,72.3176,226.8982,0,U,69827,999,234,-.51327E-2,-.177137E-1,.872E-3
STARLINK-38001,2026-154K,2026-07-13T04:00:01.998720,15.92540692,.0000574,53.1598,303.1750,77.0436,224.9950,0,U,69828,999,234,-.51117E-2,-.1775949E-1,.87729E-3
STARLINK-37622,2026-154L,2026-07-13T04:00:01.998720,15.92665414,.0000524,53.1597,303.1692,74.0296,230.8600,0,U,69829,999,234,-.5086E-2,-.1778519E-1,.88073E-3
STARLINK-37621,2026-154M,2026-07-13T04:00:01.998720,15.92792178,.0000676,53.1598,303.1636,83.8708,223.6499,0,U,69830,999,234,-.50222E-2,-.1768029E-1,.87226E-3
STARLINK-37918,2026-154N,2026-07-13T04:00:01.998720,15.92916543,.0000676,53.1598,303.1583,77.1876,232.9131,0,U,69831,999,234,-.49292E-2,-.1746915E-1,.85419E-3
STARLINK-37887,2026-154P,2026-07-13T04:00:01.998720,15.93041917,.0000622,53.1597,303.1530,70.2783,242.3752,0,U,69832,999,234,-.48571E-2,-.173293E-1,.84267E-3
STARLINK-37624,2026-154Q,2026-07-13T04:00:01.998720,15.93163584,.0000571,53.1597,303.1465,74.3060,241.4813,0,U,69833,999,234,-.49012E-2,-.1759513E-1,.86773E-3
STARLINK-37769,2026-154R,2026-07-13T04:00:01.998720,15.93278741,.0000693,53.1595,303.1404,78.5209,240.2426,0,U,69834,999,234,-.48776E-2,-.1761666E-1,.8707E-3
STARLINK-37247,2026-154S,2026-07-13T04:00:01.998720,15.93396673,.000061,53.1597,303.1344,74.1460,247.4965,0,U,69835,999,244,-.48519E-2,-.1763238E-1,.87317E-3
STARLINK-37569,2026-154T,2026-07-13T04:00:01.998720,15.93529900,.0000518,53.1595,303.1293,77.4069,246.7491,0,U,69836,999,234,-.48348E-2,-.1769354E-1,.87995E-3
STARLINK-37587,2026-154U,2026-07-13T04:00:01.998720,15.93642687,.0000786,53.1595,303.1224,70.9942,256.4461,0,U,69837,999,231,-.48695E-2,-.1792407E-1,.90229E-3
STARLINK-37590,2026-154V,2026-07-13T04:00:01.998720,15.93764592,.0000782,53.1595,303.1168,70.9488,259.2289,0,U,69838,999,218,-.48453E-2,-.1795016E-1,.90584E-3
STARLINK-37589,2026-154W,2026-07-13T04:00:01.998720,15.93878955,.00006,53.1594,303.1107,75.1856,257.9434,0,U,69839,999,231,-.48292E-2,-.1799809E-1,.91138E-3
STARLINK-37487,2026-154X,2026-07-13T04:00:01.998720,16.00343527,.0000688,53.1581,302.9058,75.8492,355.2171,0,U,69840,999,231,-.28096E-2,-.1499479E-1,.69691E-3
STARLINK-37433,2026-154Y,2026-07-13T04:00:01.998720,16.00465788,.0000681,53.1581,302.8940,79.0281,357.6393,0,U,69841,999,244,-.28338E-2,-.1522775E-1,.71789E-3
STARLINK-37588,2026-154Z,2026-07-13T04:00:01.998720,16.00599674,.0000756,53.1579,302.8814,74.4852,8.1968,0,U,69842,999,234,-.28695E-2,-.1553456E-1,.7458E-3
STARLINK-37579,2026-154AA,2026-07-13T04:00:01.998720,16.00752242,.0000738,53.1579,302.8642,69.5093,21.3127,0,U,69843,999,234,-.28912E-2,-.1578691E-1,.76955E-3
STARLINK-37584,2026-154AB,2026-07-13T04:00:01.998720,16.00878192,.0000729,53.1580,302.8539,78.5879,17.0626,0,U,69844,999,234,-.29082E-2,-.1599277E-1,.78925E-3
STARLINK-37606,2026-154AC,2026-07-13T04:00:01.998720,16.01013519,.0000796,53.1578,302.8416,73.0336,28.4989,0,U,69845,999,234,-.29167E-2,-.1616347E-1,.80608E-3
STARLINK-37603,2026-154AD,2026-07-13T04:00:01.998720,16.01179466,.0000879,53.1579,302.8264,74.9010,33.7547,0,U,69846,999,234,-.29478E-2,-.1648911E-1,.8379E-3
STARLINK-37595,2026-154AE,2026-07-13T04:00:01.998720,16.01300800,.000073,53.1576,302.8159,73.2042,40.3451,0,U,69847,999,234,-.29851E-2,-.168114E-1,.86966E-3
CHUANG XIN 26 (CX-26),2026-158A,2026-07-12T17:50:02.533632,14.25121544,.0004863,49.9844,290.7674,291.8208,68.2188,0,U,69972,999,35,-.69137E-4,-.323E-5,0
CZ-10B DEB,2026-158B,2026-07-13T05:37:37.811424,14.24885937,.00057,49.9847,288.6986,304.6532,55.3844,0,U,69973,999,42,.11372E-3,.107E-5,0
CZ-10B R/B,2026-158C,2026-07-10T19:59:18.017088,14.64294088,.01976271,49.9651,298.6353,184.6042,175.3074,0,U,69974,999,8,.64179561E-4,.207E-5,0
