STARLINK-37695          
1 69824U 26154F   26194.16668980 -.00471171  81713-4 -13296-2 0  9993
2 69824  53.1598 303.1984 0000787  67.2557 223.5951 15.92659210  2340
STARLINK-37690          
1 69825U 26154G   26194.16668980 -.01738170  83994-3 -51035-2 0  9995
2 69825  53.1598 303.1934 0000614  75.4952 217.7533 15.92153045  2341
STARLINK-37710          
1 69826U 26154H   26194.16668980 -.01762603  86296-3 -51411-2 0  9990
2 69826  53.1598 303.1869 0000643  80.6694 215.6773 15.92284031  2345
STARLINK-38031          
1 69827U 26154J   26194.16668980 -.01771370  87200-3 -51327-2 0  9994
2 69827  53.1599 303.1807 0000630  72.3176 226.8982 15.92411946  2341
STARLINK-38001          
1 69828U 26154K   26194.16668980 -.01775949  87729-3 -51117-2 0  9994
2 69828  53.1598 303.1750 0000574  77.0436 224.9950 15.92540692  2341
STARLINK-37622          
1 69829U 26154L   26194.16668980 -.01778519  88073-3 -50860-2 0  9998
2 69829  53.1597 303.1692 0000524  74.0296 230.8600 15.92665414  2340
STARLINK-37621          
1 69830U 26154M   26194.16668980 -.01768029  87226-3 -50222-2 0  9996
2 69830  53.1598 303.1636 0000676  83.8708 223.6499 15.92792178  2349
STARLINK-37918          
1 69831U 26154N   26194.16668980 -.01746915  85419-3 -49292-2 0  9994
2 69831  53.1598 303.1583 0000676  77.1876 232.9131 15.92916543  2343
STARLINK-37887          
1 69832U 26154P   26194.16668980 -.01732930  84267-3 -48571-2 0  9996
2 69832  53.1597 303.1530 0000622  70.2783 242.3752 15.93041917  2346
STARLINK-37624          
1 69833U 26154Q   26194.16668980 -.01759513  86773-3 -49012-2 0  9998
2 69833  53.1597 303.1465 0000571  74.3060 241.4813 15.93163584  2343
STARLINK-37769          
1 69834U 26154R   26194.16668980 -.01761666  87070-3 -48776-2 0  9998
2 69834  53.1595 303.1404 0000693  78.5209 240.2426 15.93278741  2340
STARLINK-37247          
1 69835U 26154S   26194.16668980 -.01763238  87317-3 -48519-2 0  9995
2 69835  53.1597 303.1344 0000610  74.1460 247.4965 15.93396673  2449
STARLINK-37569          
1 69836U 26154T   26194.16668980 -.01769354  87995-3 -48348-2 0  9993
2 69836  53.1595 303.1293 0000518  77.4069 246.7491 15.93529900  2345
STARLINK-37587          
1 69837U 26154U   26194.16668980 -.01792407  90229-3 -48695-2 0  9998
2 69837  53.1595 303.1224 0000786  70.9942 256.4461 15.93642687  2315
STARLINK-37590          
1 69838U 26154V   26194.16668980 -.01795016  90584-3 -48453-2 0  9994
2 69838  53.1595 303.1168 0000782  70.9488 259.2289 15.93764592  2188
STARLINK-37589          
1 69839U 26154W   26194.16668980 -.01799809  91138-3 -48292-2 0  9996
2 69839  53.1594 303.1107 0000600  75.1856 257.9434 15.93878955  2317
STARLINK-37487          
1 69840U 26154X   26194.16668980 -.01499479  69691-3 -28096-2 0  9997
2 69840  53.1581 302.9058 0000688  75.8492 355.2171 16.00343527  2317
STARLINK-37433          
1 69841U 26154Y   26194.16668980 -.01522775  71789-3 -28338-2 0  9994
2 69841  53.1581 302.8940 0000681  79.0281 357.6393 16.00465788  2442
STARLINK-37588          
1 69842U 26154Z   26194.16668980 -.01553456  74580-3 -28695-2 0  9993
2 69842  53.1579 302.8814 0000756  74.4852   8.1968 16.00599674  2343
STARLINK-37579          
1 69843U 26154AA  26194.16668980 -.01578691  76955-3 -28912-2 0  9992
2 69843  53.1579 302.8642 0000738  69.5093  21.3127 16.00752242  2341
STARLINK-37584          
1 69844U 26154AB  26194.16668980 -.01599277  78925-3 -29082-2 0  9994
2 69844  53.1580 302.8539 0000729  78.5879  17.0626 16.00878192  2340
STARLINK-37606          
1 69845U 26154AC  26194.16668980 -.01616347  80608-3 -29167-2 0  9998
2 69845  53.1578 302.8416 0000796  73.0336  28.4989 16.01013519  2347
STARLINK-37603          
1 69846U 26154AD  26194.16668980 -.01648911  83790-3 -29478-2 0  9991
2 69846  53.1579 302.8264 0000879  74.9010  33.7547 16.01179466  2344
STARLINK-37595          
1 69847U 26154AE  26194.16668980 -.01681140  86966-3 -29851-2 0  9996
2 69847  53.1576 302.8159 0000730  73.2042  40.3451 16.01300800  2344
CHUANG XIN 26 (CX-26)   
1 69972U 26158A   26193.74308488 -.00000323  00000+0 -69137-4 0  9997
2 69972  49.9844 290.7674 0004863 291.8208  68.2188 14.25121544   359
CZ-10B DEB              
1 69973U 26158B   26194.23446541  .00000107  00000+0  11372-3 0  9991
2 69973  49.9847 288.6986 0005700 304.6532  55.3844 14.24885937   425
CZ-10B R/B              
1 69974U 26158C   26191.83284742  .00000207  00000+0  64180-4 0  9995
2 69974  49.9651 298.6353 0197627 184.6042 175.3074 14.64294088    85
